[{"OBJECT_NAME":"STARLINK-4438","OBJECT_ID":"2022-105AL","EPOCH":"2026-03-09T15:20:08.690208","MEAN_MOTION":15.05649173,"ECCENTRICITY":0.0002025,"INCLINATION":97.6027,"RA_OF_ASC_NODE":311.1118,"ARG_OF_PERICENTER":67.8484,"MEAN_ANOMALY":292.2957,"EPHEMERIS_TYPE":0,"CLASSIFICATION_TYPE":"U","NORAD_CAT_ID":53682,"ELEMENT_SET_NO":999,"REV_AT_EPOCH":19329,"BSTAR":3.9471e-5,"MEAN_MOTION_DOT":5.09e-6,"MEAN_MOTION_DDOT":0},{"OBJECT_NAME":"OBJECT H","OBJECT_ID":"2017-042H","EPOCH":"2026-03-09T21:54:40.929408","MEAN_MOTION":15.07257911,"ECCENTRICITY":0.00117342,"INCLINATION":97.4058,"RA_OF_ASC_NODE":233.05,"ARG_OF_PERICENTER":93.954,"MEAN_ANOMALY":266.303,"EPHEMERIS_TYPE":0,"CLASSIFICATION_TYPE":"U","NORAD_CAT_ID":42832,"ELEMENT_SET_NO":999,"REV_AT_EPOCH":47198,"BSTAR":0.00041037265,"MEAN_MOTION_DOT":6.138e-5,"MEAN_MOTION_DDOT":0}]
